NORAD_CAT_ID,OBJECT_NAME,OBJECT_TYPE,EPOCH,MEAN_MOTION,ECCENTRICITY,INCLINATION,RA_OF_ASC_NODE,ARG_OF_PERICENTER,MEAN_ANOMALY,BSTAR,MEAN_MOTION_DOT,MEAN_MOTION_DDOT,TLE_LINE0,TLE_LINE1,TLE_LINE2,SEMIMAJOR_AXIS,PERIOD,APOGEE,PERIGEE,DECAYED
53731.0,STARLINK-4636,PAYLOAD,2022-10-25 22:00:01,15.52690606,0.0001681,53.217,22.2646,32.5807,54.2159,-0.020531,-0.0115964,0.0,0 STARLINK-4636,1 53731U 22107AH  22298.91668981 -.01159640  00000-0 -20531-1 0  9992,2 53731  53.2170  22.2646 0001681  32.5807  54.2159 15.52690606  1302,6787.011,92.742,410.017,407.735,0.0
53731.0,STARLINK-4636,PAYLOAD,2022-10-26 06:00:00,15.5185994,0.0001902,53.2173,20.6651,35.0182,115.482,-0.020662,-0.01135091,0.0,0 STARLINK-4636,1 53731U 22107AH  22299.25001157 -.01135091  00000-0 -20662-1 0  9995,2 53731  53.2173  20.6651 0001902  35.0182 115.4820 15.51859940  8155,6789.433000000001,92.792,412.589,410.006,0.0
53731.0,STARLINK-4636,PAYLOAD,2022-10-26 14:00:01,15.509920800000002,0.0001975,53.2177,19.0703,28.0623,185.2325,-0.018965,-0.0102069999999999,0.0,0 STARLINK-4636,1 53731U 22107AH  22299.58334491 -.01020700  00000-0 -18965-1 0  9994,2 53731  53.2177  19.0703 0001975  28.0623 185.2325 15.50992080  1308,6791.965,92.844,415.172,412.489,0.0
53731.0,STARLINK-4636,PAYLOAD,2022-10-26 22:00:00,15.50246736,0.0001365,53.2175,17.4741,39.5665,235.5137,-0.011618,-0.00618137,0.0,0 STARLINK-4636,1 53731U 22107AH  22299.91667824 -.00618137  00000-0 -11618-1 0  9994,2 53731  53.2175  17.4741 0001365  39.5665 235.5137 15.50246736  1306,6794.142,92.888,416.934,415.08,0.0
53731.0,STARLINK-4636,PAYLOAD,2022-10-27 14:00:01,15.49274735,0.0001726,53.217,14.2896,34.1083,2.6658,-0.02266,-0.011515,0.0,0 STARLINK-4636,1 53731U 22107AH  22300.58335648 -.01151500  00000-0 -22660-1 0  9992,2 53731  53.2170  14.2896 0001726  34.1083   2.6658 15.49274735  1302,6796.983,92.947,420.022,417.675,0.0
53731.0,STARLINK-4636,PAYLOAD,2022-10-27 22:00:00,15.48472913,0.0001797,53.2169,12.6977,32.6984,63.6834,-0.023709,-0.01169485,0.0,0 STARLINK-4636,1 53731U 22107AH  22300.91667824 -.01169485  00000-0 -23709-1 0  9999,2 53731  53.2169  12.6977 0001797  32.6984  63.6834 15.48472913  1303,6799.33,92.995,422.417,419.973,0.0
53731.0,STARLINK-4636,PAYLOAD,2022-10-28 14:00:01,15.46827907,0.000162,53.2172,9.5237,47.2467,165.6244,-0.02451,-0.01143594,0.0,0 STARLINK-4636,1 53731U 22107AH  22301.58335648 -.01143594  00000-0 -24510-1 0  9993,2 53731  53.2172   9.5237 0001620  47.2467 165.6244 15.46827907  1307,6804.149,93.094,427.117,424.912,0.0
53731.0,STARLINK-4636,PAYLOAD,2022-10-28 22:00:01,15.4601547,0.0001662,53.2174,7.9374,36.8884,232.7255,-0.025284,-0.01146623,0.0,0 STARLINK-4636,1 53731U 22107AH  22301.91668981 -.01146623  00000-0 -25284-1 0  9994,2 53731  53.2174   7.9374 0001662  36.8884 232.7255 15.46015470  8563,6806.533,93.143,429.529,427.267,0.0
53731.0,STARLINK-4636,PAYLOAD,2022-10-29 12:00:00,15.44638151,0.0001639,53.2169,5.1699,37.8998,238.5701,-0.0280459999999999,-0.01207019,0.0,0 STARLINK-4636,1 53731U 22107AH  22302.50001157 -.01207019  00000-0 -28046-1 0  9992,2 53731  53.2169   5.1699 0001639  37.8998 238.5701 15.44638151  1308,6810.579000000002,93.226,433.56,431.327,0.0
53731.0,STARLINK-4636,PAYLOAD,2022-10-29 22:00:01,15.43571425,0.0001889999999999,53.2173,3.1945,28.4783,45.4962,-0.027373,-0.01141952,0.0,0 STARLINK-4636,1 53731U 22107AH  22302.91668981 -.01141952  00000-0 -27373-1 0  9996,2 53731  53.2173   3.1945 0001890  28.4783  45.4962 15.43571425  1305,6813.715999999999,93.29,436.869,434.293,0.0
53731.0,STARLINK-4636,PAYLOAD,2022-10-30 00:00:00,15.43366848,0.0001927,53.2174,2.7998,33.4909,143.7187,-0.027481,-0.01138808,0.0,0 STARLINK-4636,1 53731U 22107AH  22303.00001157 -.01138808  00000-0 -27481-1 0  9999,2 53731  53.2174   2.7998 0001927  33.4909 143.7187 15.43366848  8732,6814.318,93.303,437.496,434.87,0.0
53731.0,STARLINK-4636,PAYLOAD,2022-10-30 14:00:01,15.41941128,0.0001794,53.2174,0.0441,36.5127,142.0804,-0.028752,-0.0113564,0.0,0 STARLINK-4636,1 53731U 22107AH  22303.58334491 -.01135640  00000-0 -28752-1 0  9995,2 53731  53.2174   0.0441 0001794  36.5127 142.0804 15.41941128  1306,6818.518,93.389,441.606,439.16,0.0
53731.0,STARLINK-4636,PAYLOAD,2022-10-30 22:00:01,15.41128814,0.0001561999999999,53.2175,358.4692,49.0266,180.5069,-0.029636,-0.01138723,0.0,0 STARLINK-4636,1 53731U 22107AH  22303.91668981 -.01138723  00000-0 -29636-1 0  9993,2 53731  53.2175 358.4692 0001562  49.0266 180.5069 15.41128814  1300,6820.9140000000025,93.438,443.844,441.713,0.0
53731.0,STARLINK-4636,PAYLOAD,2022-10-31 14:00:01,15.39506143,0.0001428,53.2171,355.3305,44.2805,284.0015,-0.0314529999999999,-0.01144425,0.0,0 STARLINK-4636,1 53731U 22107AH  22304.58334491 -.01144425  00000-0 -31453-1 0  9999,2 53731  53.2171 355.3305 0001428  44.2805 284.0015 15.39506143  1303,6825.706,93.536,448.545,446.596,0.0
53731.0,STARLINK-4636,PAYLOAD,2022-10-31 22:00:01,15.38688912,0.0001496999999999,53.2175,353.7614,38.7208,337.5699,-0.032191,-0.01140484,0.0,0 STARLINK-4636,1 53731U 22107AH  22304.91668981 -.01140484  00000-0 -32191-1 0  9991,2 53731  53.2175 353.7614 0001497  38.7208 337.5699 15.38688912  9026,6828.121999999999,93.586,451.009,448.965,0.0
53731.0,STARLINK-4636,PAYLOAD,2022-11-01 14:00:01,15.37060024,0.0001656,53.217,350.6343,44.3201,64.855,-0.033837,-0.01136907,0.0,0 STARLINK-4636,1 53731U 22107AH  22305.58334491 -.01136907  00000-0 -33837-1 0  9994,2 53731  53.2170 350.6343 0001656  44.3201  64.8550 15.37060024  1305,6832.945,93.685,455.942,453.679,0.0
53731.0,STARLINK-4636,PAYLOAD,2022-11-01 22:00:00,15.36245908,0.0001629,53.2174,349.0711,45.2169,108.9673,-0.034729,-0.01136458,0.0,0 STARLINK-4636,1 53731U 22107AH  22305.91667824 -.01136458  00000-0 -34729-1 0  9992,2 53731  53.2174 349.0711 0001629  45.2169 108.9673 15.36245908  9188,6835.359,93.735,458.338,456.111,0.0
53731.0,STARLINK-4636,PAYLOAD,2022-11-02 14:00:01,15.34616599,0.0001617,53.2173,345.9557,46.8288,194.437,-0.036466,-0.01132615,0.0,0 STARLINK-4636,1 53731U 22107AH  22306.58334491 -.01132615  00000-0 -36466-1 0  9998,2 53731  53.2173 345.9557 0001617  46.8288 194.4370 15.34616599  1302,6840.196999999999,93.835,463.168,460.955,0.0
53731.0,STARLINK-4636,PAYLOAD,2022-11-02 22:00:00,15.33804655,0.0001419999999999,53.2175,344.398,51.3546,231.9861,-0.037545,-0.01135886,0.0,0 STARLINK-4636,1 53731U 22107AH  22306.91667824 -.01135886  00000-0 -37545-1 0  9996,2 53731  53.2175 344.3980 0001420  51.3546 231.9861 15.33804655  1300,6842.61,93.884,465.447,463.504,0.0
53731.0,STARLINK-4636,PAYLOAD,2022-11-03 06:00:02,15.33012194,0.0001495,53.2168,342.8442,42.8907,281.6002,-0.039596,-0.01165286,0.0,0 STARLINK-4636,1 53731U 22107AH  22307.25002315 -.01165286  00000-0 -39596-1 0  9997,2 53731  53.2168 342.8442 0001495  42.8907 281.6002 15.33012194  9380,6844.968000000003,93.933,467.857,465.81,0.0
53731.0,STARLINK-4636,PAYLOAD,2022-11-03 14:00:01,15.32184745,0.0001585,53.2168,341.2940000000001,39.9622,324.589,-0.039911,-0.01146052,0.0,0 STARLINK-4636,1 53731U 22107AH  22307.58334491 -.01146052  00000-0 -39911-1 0  9997,2 53731  53.2168 341.2940 0001585  39.9622 324.5890 15.32184745  1304,6847.432,93.983,470.383,468.212,0.0
53731.0,STARLINK-4636,PAYLOAD,2022-11-03 22:00:00,15.31362942,0.0001498,53.2174,339.7422,41.0633,2.6338,-0.040538,-0.01135317,0.0,0 STARLINK-4636,1 53731U 22107AH  22307.91667824 -.01135317  00000-0 -40538-1 0  9992,2 53731  53.2174 339.7422 0001498  41.0633   2.6338 15.31362942  1304,6849.882,94.034,472.773,470.721,0.0
53731.0,STARLINK-4636,PAYLOAD,2022-11-04 14:00:01,15.29735418,0.0001738,53.2172,336.6499,40.2495,78.7942,-0.042602,-0.01134146,0.0,0 STARLINK-4636,1 53731U 22107AH  22308.58334491 -.01134146  00000-0 -42602-1 0  9990,2 53731  53.2172 336.6499 0001738  40.2495  78.7942 15.29735418  9599,6854.74,94.134,477.796,475.413,0.0
53731.0,STARLINK-4636,PAYLOAD,2022-11-04 22:00:01,15.28930928,0.0001902,53.2169,335.1038,36.0125,119.2989,-0.044239,-0.01147473,0.0,0 STARLINK-4636,1 53731U 22107AH  22308.91668981 -.01147473  00000-0 -44239-1 0  9996,2 53731  53.2169 335.1038 0001902  36.0125 119.2989 15.28930928  1309,6857.144,94.183,480.31300000000016,477.705,0.0
53731.0,STARLINK-4636,PAYLOAD,2022-11-05 06:00:00,15.28123619,0.0001672,53.2169,333.5619,47.0353,143.4386,-0.045737,-0.01156227,0.0,0 STARLINK-4636,1 53731U 22107AH  22309.25001157 -.01156227  00000-0 -45737-1 0  9991,2 53731  53.2169 333.5619 0001672  47.0353 143.4386 15.28123619  9696,6859.559,94.233,482.571,480.277,0.0
53731.0,STARLINK-4636,PAYLOAD,2022-11-05 14:00:01,15.27308325,0.0001773,53.2165,332.0227,41.2603,183.5284,-0.046769,-0.0116892999999999,0.0,0 STARLINK-4636,1 53731U 22107AH  22309.58335648 -.01168930  00000-0 -46769-1 0  9992,2 53731  53.2165 332.0227 0001773  41.2603 183.5284 15.27308325  1307,6862.0,94.284,485.081,482.648,0.0
53731.0,STARLINK-4636,PAYLOAD,2022-11-05 22:00:01,15.265000699999998,0.0001815,53.2169,330.4824,36.5369,221.5229,-0.048215,-0.01175194,0.0,0 STARLINK-4636,1 53731U 22107AH  22309.91668981 -.01175194  00000-0 -48215-1 0  9996,2 53731  53.2169 330.4824 0001815  36.5369 221.5229 15.26500070  1301,6864.422,94.333,487.533,485.041,0.0
53731.0,STARLINK-4636,PAYLOAD,2022-11-06 14:00:01,15.24880914,0.000168,53.2163,327.4127,37.0217,284.5829,-0.051151,-0.01186112,0.0,0 STARLINK-4636,1 53731U 22107AH  22310.58334491 -.01186112  00000-0 -51151-1 0  9992,2 53731  53.2163 327.4127 0001680  37.0217 284.5829 15.24880914  1306,6869.28,94.434,492.299,489.991,0.0
53731.0,STARLINK-4636,PAYLOAD,2022-11-07 22:00:00,15.21597179,0.0001771999999999,53.2173,321.2918,36.0588,41.0552,-0.054461,-0.01148053,0.0,0 STARLINK-4636,1 53731U 22107AH  22311.91667824 -.01148053  00000-0 -54461-1 0  9998,2 53731  53.2173 321.2918 0001772  36.0588  41.0552 15.21597179  1303,6879.159000000002,94.637,502.24300000000005,499.806,0.0
